[{"OBJECT_NAME":"ION SCV-004","OBJECT_ID":"2022-002K","EPOCH":"2026-03-09T16:32:03.244416","MEAN_MOTION":15.29369331,"ECCENTRICITY":0.00072157,"INCLINATION":97.2961,"RA_OF_ASC_NODE":128.2294,"ARG_OF_PERICENTER":1.6783,"MEAN_ANOMALY":358.448,"EPHEMERIS_TYPE":0,"CLASSIFICATION_TYPE":"U","NORAD_CAT_ID":50993,"ELEMENT_SET_NO":999,"REV_AT_EPOCH":23008,"BSTAR":0.00023198467,"MEAN_MOTION_DOT":6.538e-5,"MEAN_MOTION_DDOT":0},{"OBJECT_NAME":"STARLINK-35758","OBJECT_ID":"2025-244Z","EPOCH":"2026-03-09T16:54:58.286592","MEAN_MOTION":15.30203217,"ECCENTRICITY":9.365e-5,"INCLINATION":53.16,"RA_OF_ASC_NODE":229.7065,"ARG_OF_PERICENTER":80.3876,"MEAN_ANOMALY":279.7231,"EPHEMERIS_TYPE":0,"CLASSIFICATION_TYPE":"U","NORAD_CAT_ID":66229,"ELEMENT_SET_NO":999,"REV_AT_EPOCH":2166,"BSTAR":0.00059310301,"MEAN_MOTION_DOT":0.00017249,"MEAN_MOTION_DDOT":0}]
